{
    "links": {
        "self": "http://www.neowsapp.com/rest/v1/neo/54053847?api_key=iIulBulltgU6a56xZRHN4H3l9WmuAYTsLGpBGhQ2"
    },
    "id": "54053847",
    "neo_reference_id": "54053847",
    "name": "(2020 RS2)",
    "designation": "2020 RS2",
    "nasa_jpl_url": "http://ssd.jpl.nasa.gov/sbdb.cgi?sstr=54053847",
    "absolute_magnitude_h": 26.15,
    "estimated_diameter": {
        "kilometers": {
            "estimated_diameter_min": 0.0156514644,
            "estimated_diameter_max": 0.0349977383
        },
        "meters": {
            "estimated_diameter_min": 15.6514643594,
            "estimated_diameter_max": 34.9977382549
        },
        "miles": {
            "estimated_diameter_min": 0.0097253661,
            "estimated_diameter_max": 0.0217465796
        },
        "feet": {
            "estimated_diameter_min": 51.3499503287,
            "estimated_diameter_max": 114.8219795763
        }
    },
    "is_potentially_hazardous_asteroid": false,
    "close_approach_data": [
        {
            "close_approach_date": "2020-09-03",
            "close_approach_date_full": "2020-Sep-03 13:26",
            "epoch_date_close_approach": 1599139560000,
            "relative_velocity": {
                "kilometers_per_second": "7.2418037591",
                "kilometers_per_hour": "26070.4935327326",
                "miles_per_hour": "16199.1908287137"
            },
            "miss_distance": {
                "astronomical": "0.0486040419",
                "lunar": "18.9069722991",
                "kilometers": "7271061.141630753",
                "miles": "4518027.8896722714"
            },
            "orbiting_body": "Earth"
        }
    ],
    "orbital_data": {
        "orbit_id": "3",
        "orbit_determination_date": "2020-09-25 06:31:10",
        "first_observation_date": "2020-09-10",
        "last_observation_date": "2020-09-22",
        "data_arc_in_days": 12,
        "observations_used": 23,
        "orbit_uncertainty": "8",
        "minimum_orbit_intersection": ".044282",
        "jupiter_tisserand_invariant": "3.365",
        "epoch_osculation": "2459104.5",
        "eccentricity": ".5447581821454679",
        "semi_major_axis": "2.312338246036417",
        "inclination": "4.07583679818634",
        "ascending_node_longitude": "344.3411885824005",
        "orbital_period": "1284.326579722369",
        "perihelion_distance": "1.052673066620179",
        "perihelion_argument": "349.9486012192985",
        "aphelion_distance": "3.572003425452655",
        "perihelion_time": "2459090.646216883170",
        "mean_anomaly": "3.88325056944388",
        "mean_motion": ".2803025380645947",
        "equinox": "J2000",
        "orbit_class": {
            "orbit_class_type": "AMO",
            "orbit_class_description": "Near-Earth asteroid orbits similar to that of 1221 Amor",
            "orbit_class_range": "1.017 AU < q (perihelion) < 1.3 AU"
        }
    },
    "is_sentry_object": false
}